CANX-4                  
1 40055U 14034C   24278.49894793  .00006410  00000+0  87850-3 0  9993
2 40055  98.3857 117.8178 0012820 197.0648 163.0133 14.78766288552733
CANX-5                  
1 40056U 14034D   24278.77405243  .00007120  00000+0  97447-3 0  9995
2 40056  98.3859 118.1134 0012843 196.5113 163.5680 14.78780925543554
UKUBE-1                 
1 40074U 14037F   24278.82308486  .00032335  00000+0  28034-2 0  9996
2 40074  98.3458 215.7209 0006323  77.1829 283.0096 14.96993011555161
BRITE-PL2 (HEWELIUSZ)   
1 40119U 14049B   24278.86127122  .00010018  00000+0  10408-2 0  9999
2 40119  97.8863  18.1252 0015373   7.3890 352.7551 14.90028944548908
AEROCUBE 5C             
1 40965U 15058B   24278.67724870  .00015649  00000+0  13472-2 0  9990
2 40965  64.7723  25.1385 0191694 275.2925  82.6338 14.84380758273281
AEROCUBE 7              
1 40966U 15058C   24278.67560980  .00018789  00000+0  15461-2 0  9999
2 40966  64.7698  17.8090 0185857 274.9339  83.0576 14.86650144273373
FOX-1A (AO-85)          
1 40967U 15058D   24278.78185715  .00016722  00000+0  14692-2 0  9991
2 40967  64.7789  39.0904 0190149 271.0196  86.9133 14.83798176 21247
SINOD-D 1               
1 40968U 15058E   24278.79484040  .00022387  00000+0  18713-2 0  9998
2 40968  64.7795  30.6783 0183833 270.0172  87.9874 14.86256478 24098
SNAP-3 ALICE            
1 40970U 15058G   24278.54672566  .00054826  00000+0  32865-2 0  9993
2 40970  64.7709 341.5289 0148298 268.6744  89.7381 15.01827169 22174
LMRST-SAT               
1 40971U 15058H   24278.89624942  .00017002  00000+0  14894-2 0  9994
2 40971  64.7791  34.2895 0191501 272.3866  85.5331 14.83730536 21265
SNAP-3 EDDIE            
1 40972U 15058J   24278.52921232  .00052447  00000+0  31065-2 0  9998
2 40972  64.7677 334.7628 0148583 269.6714  88.7377 15.02221991 24275
PROPCUBE 3              
1 40973U 15058K   24278.64550783  .00018658  00000+0  15620-2 0  9996
2 40973  64.7735  21.8061 0187758 273.8613  84.1049 14.85795836 22287
BISONSAT                
1 40974U 15058L   24278.70547791  .00037850  00000+0  26212-2 0  9993
2 40974  64.7692 351.6924 0165217 271.7770  86.4428 14.95002199 22111
SNAP-3 JIMI             
1 40975U 15058M   24278.34594028  .00025800  00000+0  19965-2 0  9998
2 40975  64.7716   8.9783 0178256 273.0075  85.0652 14.89652801 21278
PROPCUBE 1 (FLORA)      
1 40976U 15058N   24278.70732678  .00014887  00000+0  13581-2 0  9995
2 40976  64.7771  50.9066 0190029 273.7026  84.2370 14.82496926 24027
SINOD-D 3               
1 40977U 15058P   24278.73907799  .00019941  00000+0  17319-2 0  9996
2 40977  64.7762  42.9750 0183631 272.9178  85.0930 14.84939517 22286
HORYU-4                 
1 41340U 16012D   24278.38860326  .00039001  00000+0  16862-2 0  9998
2 41340  31.0026 341.6779 0007302  14.4655 345.6195 15.21259346474769
RAVAN                   
1 41849U 16067B   24278.43269999  .00031942  00000+0  15690-2 0  9991
2 41849  98.0653 102.8548 0012252  19.7052 340.4651 15.17933690432537
CELTEE 1                
1 41850U 16067C   24278.41499428  .00019506  00000+0  12375-2 0  9992
2 41850  98.1091  93.7626 0001378 139.8984 220.2345 15.08946705431889
OPTICUBE 04             
1 41851U 16067D   24278.44397124  .00010760  00000+0  77717-3 0  9991
2 41851  98.0842  88.1274 0018248  52.0037 308.2832 15.04140643431655
AEROCUBE 8D             
1 41852U 16067E   24278.76630594  .00025495  00000+0  15411-2 0  9991
2 41852  98.1139  94.2027 0005450  98.7812 261.4034 15.10642159431929
AEROCUBE 8C             
1 41853U 16067F   24278.71584363  .00025570  00000+0  15456-2 0  9992
2 41853  98.0952  92.4616 0007656  33.1786 326.9921 15.10628953431905
PROMETHEUS 2-1          
1 41854U 16067G   24278.46137434  .00054727  00000+0  22742-2 0  9990
2 41854  98.1000 101.5848 0010975  44.0600 316.1507 15.23554099432336
PROMETHEUS 2-3          
1 41855U 16067H   24278.46118620  .00056303  00000+0  23462-2 0  9999
2 41855  98.0937 100.9673 0009406  53.6955 306.5147 15.23465897432330
CORVUS BC2              
1 42846U 17042X   24278.44230325  .00013676  00000+0  11227-2 0  9991
2 42846  97.3741  97.5826 0008859  60.1481 300.0622 14.99280765393801
CORVUS BC1              
1 42847U 17042Y   24278.45872149  .00013723  00000+0  11211-2 0  9995
2 42847  97.3764  98.0150 0009917  57.2223 302.9955 14.99457612393829
MIRATA                  
1 43015U 17073C   24278.39883228  .00065645  00000+0  25811-2 0  9991
2 43015  97.5753 162.3149 0146616 245.3816 113.2083 15.15975596372823
MAKERSAT 0              
1 43016U 17073D   24278.60744456  .00038718  00000+0  20137-2 0  9992
2 43016  97.5544 154.7323 0178602 271.6081  86.4695 15.03130117372310
GOMX-4B                 
1 43196U 18015E   24278.45007073  .01285065  11375-2  12118-2 0  9998
2 43196  97.5840 102.8628 0007930 265.5523  94.4855 16.12251570372751
SIRION PATHFINDER-2     
1 43759U 18099B   24278.69466945  .00018445  00000+0  13050-2 0  9999
2 43759  97.5165 331.8273 0009337 274.2955  85.7204 15.04869561318964
CORVUS BC4              
1 43767U 18099K   24278.71807543  .00015089  00000+0  10957-2 0  9998
2 43767  97.4987 328.7115 0009179 340.4223  19.6649 15.03935272318840
MOVE-II                 
1 43780U 18099Y   24278.68974990  .00076500  00000+0  31081-2 0  9996
2 43780  97.5073 341.1399 0004266 315.2155  44.8738 15.24248962319555
SPACEBEE-7              
1 43816U 18099BL  24278.72459218  .00048777  00000+0  24480-2 0  9992
2 43816  97.5356 341.3901 0007839 264.5814  95.4525 15.17110286318988
SPACEBEE-6              
1 43818U 18099BN  24278.75287097  .00163839  00000+0  42360-2 0  9995
2 43818  97.5261 349.2177 0007209 249.9497 110.0972 15.38425518319657
SHIELDS 1               
1 43850U 18104B   24278.81385108  .00046534  00000+0  10514-2 0  9995
2 43850  85.0251 208.4503 0011699  38.0757 322.1321 15.42921633323032
SONATE                  
1 44400U 19038Q   24278.54415230  .00068838  00000+0  15961-2 0  9996
2 44400  97.7159 278.1101 0017030  79.8723 280.4443 15.42013969290881
LUCKY-7                 
1 44406U 19038W   24278.59131746  .00176926  00000+0  20177-2 0  9997
2 44406  97.6991 284.4386 0012441  70.1570 290.1027 15.61556306291324
DUCHIFAT-3              
1 44854U 19089C   24278.90070093  .00064156  00000+0  26835-2 0  9990
2 44854  36.9530 100.2679 0009071 314.8283  45.1728 15.22504020264969
M2 PATHFINDER           
1 45727U 20037E   24278.48293478  .00012368  00000+0  10339-2 0  9992
2 45727  97.7804  94.4862 0011225 118.7321 241.5031 14.98595737232303
NETSAT-4                
1 46504U 20068U   24278.64838328  .00035143  00000+0  16776-2 0  9994
2 46504  97.8172 239.0704 0008933   4.8225 355.3093 15.18936263220763
NETSAT-3                
1 46505U 20068V   24278.87331500  .00034976  00000+0  16969-2 0  9997
2 46505  97.8153 238.6718 0008891  14.6459 345.5030 15.18374092220784
NETSAT-1                
1 46506U 20068W   24278.33782522  .00024731  00000+0  12887-2 0  9996
2 46506  97.8177 237.2894 0008529  26.4696 333.6970 15.15948480220644
NETSAT-2                
1 46507U 20068X   24278.86587942  .00035295  00000+0  16843-2 0  9997
2 46507  97.8157 238.8966 0007827  32.7662 327.4055 15.18955153220747
WILDTRACKCUBE-SIMBA     
1 47941U 21022K   24278.91151898  .00047937  00000+0  18074-2 0  9998
2 47941  97.4441 174.9619 0016472 113.2296 247.0679 15.26775144195177
GRBALPHA                
1 47959U 21022AD  24278.89206162  .00082523  00000+0  24784-2 0  9994
2 47959  97.4435 177.7022 0015357 103.6856 256.6097 15.33997594194176
BEESAT-8                
1 48085U 21022AP  24278.70816462  .00111250  00000+0  23995-2 0  9998
2 48085  97.4665 182.6166 0014099  92.0527 268.2336 15.44047446194702
LEDSAT                  
1 49069U 21073D   24278.77862656  .00061512  00000+0  20113-2 0  9994
2 49069  97.4256 349.5487 0016136 253.2380 106.7091 15.31366221173187
ROBUSTA-1F (MTCUBE 2)   
1 53109U 22080E   24278.03985878 -.00000003  00000+0  00000+0 0  9993
2 53109  70.1229 154.2805 0008231  64.7828 295.3684  6.42583928 52152
SITRO-AIS 5 (KATYS)     
1 57176U 23091L   24278.91045721  .00032344  00000+0  18950-2 0  9993
2 57176  97.5989 330.2875 0018122 106.2731 254.0494 15.11586928 70053
SITRO-AIS 6 (CHIRKIN)   
1 57192U 23091AC  24278.89189732  .00031342  00000+0  18350-2 0  9990
2 57192  97.5993 330.2994 0018049 106.0707 254.2512 15.11621153 70050
SITRO-AIS 8 (ANOKHIN)   
1 57193U 23091AD  24278.89599363  .00035010  00000+0  20173-2 0  9998
2 57193  97.5991 330.4371 0017637 106.8968 253.4198 15.12176981 70066
SITRO-AIS 7 (FARTUSHNIY)
1 57194U 23091AE  24278.90092600  .00031817  00000+0  18664-2 0  9996
2 57194  97.5989 330.2792 0017818 106.7141 253.6046 15.11551805 70056
SITRO-AIS 10 (BURDAEV)  
1 57199U 23091AK  24278.85870197  .00035935  00000+0  19550-2 0  9990
2 57199  97.6002 331.6477 0013032  95.9094 264.3623 15.14290081 70131
SITRO-AIS 9 (SHCHUKIN)  
1 57201U 23091AM  24278.85878804  .00032611  00000+0  17772-2 0  9999
2 57201  97.5999 331.6174 0013014  95.7702 264.5014 15.14252070 70139
SITRO-AIS 12 (SMIRENNIY)
1 57204U 23091AQ  24278.87330475  .00034236  00000+0  18547-2 0  9997
2 57204  97.6011 331.8080 0012963  90.2976 269.9741 15.14453572 70148
SITRO-AIS 11 (SHEFFER)  
1 57208U 23091AU  24278.85160628  .00033088  00000+0  17870-2 0  9992
2 57208  97.6004 331.8230 0012656  90.6263 269.6419 15.14574112 70146
ROBUSTA-1E (ENSO)       
1 58470U 23185J   24278.84754469  .00062054  00000+0  21504-2 0  9993
2 58470  97.4137 344.7613 0010273 246.3204 113.6959 15.29554978 46862
SITRO-AIS 29            
1 59052U 24039B   24278.86121648  .00088993  00000+0  24364-2 0  9995
2 59052  97.4020 240.6203 0015248 168.5798 191.5795 15.36877742 33380
